satname,norad_id,inclination_deg,eccentricity,mean_motion_rev_per_day,perigee_km,apogee_km,l1,l2
STARLINK-1297,45395,53.0537,0.0002116,15.46925941,424.2852505836381,427.1646449599357,1 45395U 20019AM  26031.81818344  .00072047  00000+0  14031-2 0  9997,2 45395  53.0537 307.7478 0002116 111.7187 248.4045 15.46925941323699
STARLINK-1307,45397,53.0574,0.0001534,15.45587997,428.6065924287768,430.69522175867314,1 45397U 20019AP  26031.05232026  .00021686  00000+0  45120-3 0  9999,2 45397  53.0574 310.8871 0001534 115.9337 244.1828 15.45587997324226
STARLINK-1255,45399,53.0448,0.0006897,15.44792629,427.29051610488386,436.68440178355104,1 45399U 20019AR  26031.83212552  .00063224  00000+0  13263-2 0  9995,2 45399  53.0448 279.1870 0006897 112.3020 247.8718 15.44792629324723
STARLINK-1260,45404,53.1574,0.0001517,15.2936481,476.6698990258128,478.74996298467977,1 45404U 20019AW  26031.07314140  .00001314  00000+0  57854-4 0  9992,2 45404  53.1574 303.9313 0001517  94.3326 265.7847 15.29364810324217
STARLINK-1263,45405,53.1557,0.0001836,15.29355886,476.47786245358657,478.99533923981653,1 45405U 20019AX  26031.45235541  .00002140  00000+0  86487-4 0  9994,2 45405  53.1557 302.1895 0001836  88.7892 271.3318 15.29355886324279
STARLINK-1265,45406,53.1558,0.0001657,15.29360918,476.58554665543124,478.8575781830168,1 45406U 20019AY  26031.72805844 -.00000152  00000+0  70640-5 0  9991,2 45406  53.1558 300.9813 0001657  89.1295 270.9896 15.29360918324313
STARLINK-1278,45408,53.0502,0.0006162,15.48423575,417.14727788526216,425.5269497831514,1 45408U 20019BA  26031.91670139  .00083715  00000+0  15433-2 0  9992,2 45408  53.0502 307.4125 0006162  70.5513 109.6133 15.48423575  5839
STARLINK-1296,45412,53.1621,0.0001968,15.29383666,476.30436012844166,479.0027993006179,1 45412U 20019BE  26031.91670139 -.00066269  00000+0 -23025-2 0  9990,2 45412  53.1621 300.0356 0001968  61.6404 277.7356 15.29383666  5638
STARLINK-1298,45413,53.041,0.0006761,15.78054115,331.41496489378824,340.4937592335709,1 45413U 20019BF  26031.91670139  .00142890  00000+0  81206-3 0  9990,2 45413  53.0410 240.3026 0006761 165.6558 324.7975 15.78054115  6016
STARLINK-1309,45414,53.0711,8.43e-05,15.35706883,458.24530779427187,459.3980190249231,1 45414U 20019BG  26031.91670139  .01788566  00000+0  45658-1 0  9997,2 45414  53.0711 300.0312 0000843  88.3395 124.9560 15.35706883  5836
STARLINK-1316,45415,53.153,0.0001149,15.29373968,476.89482844450504,478.47029577987814,1 45415U 20019BH  26031.77162315  .00002694  00000+0  10559-3 0  9998,2 45415  53.1530 300.7732 0001149  53.2974 306.8132 15.29373968324347
STARLINK-1318,45416,53.0371,0.0004603,15.86144027,310.02539236728717,316.1853500942425,1 45416U 20019BJ  26031.91670139  .00306818  00000+0  11716-2 0  9993,2 45416  53.0371 227.0959 0004603 217.4481 164.8217 15.86144027  6042
STARLINK-1286,45417,53.0511,0.0002296,15.48054123,420.85748551932465,423.9803007854607,1 45417U 20019BK  26031.19423255  .00033927  00000+0  64287-3 0  9999,2 45417  53.0511 310.4881 0002296  57.4334 302.6895 15.48054123324418
STARLINK-1308,45419,53.0563,0.0002041,15.4215246,438.36634428204616,441.1494089706848,1 45419U 20019BM  26031.12089486  .00023798  00000+0  55472-3 0  9999,2 45419  53.0563 331.2494 0002041  94.0802 266.0436 15.42152460323862
STARLINK-1329,45531,53.0519,0.0007669,15.48274261,416.5594111202654,426.9891150155581,1 45531U 20025A   26031.81516744  .00070483  00000+0  13091-2 0  9992,2 45531  53.0519 258.9098 0007669 120.9386 239.2375 15.48274261319724
STARLINK-1338,45532,53.0519,0.0005417,15.47038604,421.70914344121775,429.0800895945531,1 45532U 20025B   26031.91670139  .00073502  00000+0  14249-2 0  9994,2 45532  53.0519 261.4656 0005417 133.1522 261.8831 15.47038604  5932
STARLINK-1350,45535,53.0715,0.0001548,15.3510175,459.5596466008783,461.6769252373988,1 45535U 20025E   26031.75749166  .00012931  00000+0  38456-3 0  9992,2 45535  53.0715 206.4530 0001548 124.9225 235.1922 15.35101750320487
STARLINK-1362,45538,53.0884,0.0002337,15.154008,518.1499947197108,521.3740727280729,1 45538U 20025H   26031.91670139  .00059657  00000+0  31121-2 0  9993,2 45538  53.0884 271.2987 0002337  61.0716  37.8852 15.15400800  5683
STARLINK-1368,45540,53.0938,0.0002333,15.15966519,516.4369706777288,519.6547295956034,1 45540U 20025K   26031.91670139  .00024479  00000+0  12722-2 0  9996,2 45540  53.0938 271.4329 0002333  87.4452  66.3189 15.15966519  5788
STARLINK-1371,45542,53.0524,0.0004703,15.41859816,437.4136757067872,443.82739904644404,1 45542U 20025M   26031.79473678  .00068662  00000+0  15884-2 0  9997,2 45542  53.0524 264.9479 0004703 127.0917 233.0518 15.41859816319635
STARLINK-1372,45543,53.0987,0.0001802,15.1686658,514.0753941854646,516.5597952213948,1 45543U 20025N   26031.91670139  .01488154  00000+0  68138-1 0  9995,2 45543  53.0987 271.5007 0001802  73.3225   2.6146 15.16866580  5785
STARLINK-1373,45544,53.0518,0.0003671,15.43453621,433.4241515927042,438.4270363491978,1 45544U 20025P   26031.81302504  .00091864  00000+0  20059-2 0  9991,2 45544  53.0518 265.1724 0003671 149.7798 210.3419 15.43453621319631
STARLINK-1294,45551,53.0345,0.000619,15.84244587,314.3074521255521,322.5978301012501,1 45551U 20025W   26031.91670139  .00182141  00000+0  77376-3 0  9996,2 45551  53.0345 162.9188 0006190 316.2549 249.3228 15.84244587  6041
STARLINK-1327,45555,53.0518,0.0002721,15.46418884,425.3604148866034,429.0638858942466,1 45555U 20025AA  26031.91670139  .00042802  00000+0  85489-3 0  9993,2 45555  53.0518 243.1609 0002721 163.9860 254.8625 15.46418884  5914
STARLINK-1356,45564,53.0534,0.000102,15.39424189,447.11467340166746,448.50716677736636,1 45564U 20025AK  26031.79872980  .00077616  00000+0  19430-2 0  9990,2 45564  53.0534 248.8688 0001020 101.2979 258.8139 15.39424189319850
STARLINK-1357,45565,53.0557,0.0004111,15.47751535,420.5091380421554,426.10128382798666,1 45565U 20025AL  26031.91670139  .00166883  00000+0  31088-2 0  9995,2 45565  53.0557 214.8915 0004111 145.4238 103.1858 15.47751535  5897
STARLINK-1361,45567,53.0539,6.65e-05,15.39992267,445.67834915296135,446.58597695164735,1 45567U 20025AN  26031.91670139  .00078736  00000+0  19342-2 0  9995,2 45567  53.0539 248.7949 0000665  83.3120 225.7917 15.39992267  5833
STARLINK-1363,45568,53.0463,0.0001147,15.66126085,369.2280845303576,370.77610763899884,1 45568U 20025AP  26031.91670139  .00238569  00000+0  22190-2 0  9993,2 45568  53.0463 220.0866 0001147 331.0780 199.3901 15.66126085  5973
STARLINK-1366,45569,53.0468,7.31e-05,15.65887084,370.19538411225403,371.18206243299755,1 45569U 20025AQ  26031.91670139  .00234079  00000+0  21995-2 0  9998,2 45569  53.0468 220.7259 0000731 305.6711 204.7048 15.65887084  5763
STARLINK-1376,45570,53.1609,0.0001356,15.29349714,476.8253873822441,478.68470530521154,1 45570U 20025AR  26031.79620757  .00008452  00000+0  30496-3 0  9998,2 45570  53.1609 248.9496 0001356  86.7622 273.3533 15.29349714319852
STARLINK-1320,45572,53.0506,0.0005614,15.60568678,382.2159304418901,389.8107184261653,1 45572U 20025AT  26031.91670139  .00128397  00000+0  15073-2 0  9997,2 45572  53.0506 166.1635 0005614 250.0925 243.7223 15.60568678  5876
STARLINK-1321,45573,53.052,0.0003762,15.41807259,438.2102197826871,443.34076954367174,1 45573U 20025AU  26031.82375001  .00016551  00000+0  39346-3 0  9996,2 45573  53.0520 234.0794 0003762 133.6459 226.4858 15.41807259319762
STARLINK-1331,45578,53.0532,0.0001359,15.34500283,461.4755645458654,463.33482391425787,1 45578U 20025AZ  26031.91670139  .00106948  00000+0  31214-2 0  9996,2 45578  53.0532 240.1077 0001359  93.2805 118.8279 15.34500283  5838
STARLINK-1333,45580,53.1598,0.0001724,15.30184794,474.078946446205,476.4419978946089,1 45580U 20025BB  26031.79051852 -.00000533  00000+0 -58533-5 0  9991,2 45580  53.1598 249.2000 0001724  79.4371 280.6824 15.30184794319855
STARLINK-1335,45581,53.0545,0.0001892,15.06395803,545.9141427877785,548.5346995495483,1 45581U 20025BC  26031.84095272  .00000548  00000+0  55721-4 0  9991,2 45581  53.0545 242.0385 0001892  91.3308 268.7898 15.06395803319950
STARLINK-1337,45582,53.0541,0.0001528,15.40607633,443.27235630040377,445.3572975787156,1 45582U 20025BD  26031.91670139  .01763552  00000+0  38487-1 0  9990,2 45582  53.0541 239.2656 0001528  99.7682   3.2723 15.40607633  5887
STARLINK-1347,45586,53.0491,0.0003706,15.46366944,424.8424178858277,429.8866556248713,1 45586U 20025BH  26031.91670139  .00187870  00000+0  36604-2 0  9996,2 45586  53.0491 206.0578 0003706 178.6648  60.9018 15.46366944  5744
STARLINK-1364,45589,53.0534,6.77e-05,15.42592098,438.0009334839533,438.9239010450501,1 45589U 20025BL  26031.91670139  .00098538  00000+0  22124-2 0  9993,2 45589  53.0534 238.6450 0000677  96.5300 303.7247 15.42592098  5730
STARLINK-1365,45590,53.0544,0.0001262,15.41737662,440.12013300499984,441.8412783139074,1 45590U 20025BM  26031.82128661  .00032956  00000+0  77424-3 0  9999,2 45590  53.0544 268.6700 0001262 144.5159 215.5930 15.41737662319599
STARLINK-1443,45660,53.0553,0.0001595,15.06392306,546.1305421843299,548.339735896684,1 45660U 20035D   26031.73498342 -.00000132  00000+0  10028-4 0  9994,2 45660  53.0553 232.5141 0001595  93.0990 267.0182 15.06392306313167
STARLINK-1446,45663,53.0241,0.0004019,15.41200492,439.8238635878015,445.3063439388052,1 45663U 20035G   26031.80358880  .00020213  00000+0  48786-3 0  9999,2 45663  53.0241 174.3671 0004019 144.3630 215.7643 15.41200492313985
STARLINK-1448,45665,53.0532,0.0001752,15.42333562,438.02975617906304,440.4185595287754,1 45665U 20035J   26031.91670139  .02005646  00000+0  40758-1 0  9991,2 45665  53.0532 228.7797 0001752  48.2737 256.3122 15.42333562  5688
STARLINK-1451,45668,53.0523,0.0003452,15.08035547,539.8144714650925,544.592274458586,1 45668U 20035M   26031.85691977  .00015928  00000+0  10389-2 0  9990,2 45668  53.0523 232.0966 0003452 132.5636 227.5645 15.08035547313182
